OBJECT_NAME,OBJECT_ID,EPOCH,MEAN_MOTION,ECCENTRICITY,INCLINATION,RA_OF_ASC_NODE,ARG_OF_PERICENTER,MEAN_ANOMALY,EPHEMERIS_TYPE,CLASSIFICATION_TYPE,NORAD_CAT_ID,ELEMENT_SET_NO,REV_AT_EPOCH,BSTAR,MEAN_MOTION_DOT,MEAN_MOTION_DDOT
FORMOSAT 7-3,2019-036E,2026-07-18T15:21:10.835136,15.10009271,.0000303,23.9998,322.0320,342.8292,17.2201,0,U,44343,999,38800,.12154E-3,.2372E-4,0
DSX,2019-036F,2026-07-18T10:36:26.658144,4.54372942,.19671483,42.3230,339.2758,29.2610,340.4674,0,U,44344,999,11721,0,-.57E-6,0
FORMOSAT 7-1,2019-036L,2026-07-18T23:37:03.905472,14.96620070,.00007826,23.9963,178.0065,165.2333,194.8191,0,U,44349,999,38942,.8770558E-4,.1327E-4,0
FORMOSAT 7-4,2019-036M,2026-07-18T19:21:34.655904,14.96616941,.00010187,23.9970,241.3149,182.4554,177.5942,0,U,44350,999,38881,.80665678E-4,.1245E-4,0
FORMOSAT 7-2,2019-036N,2026-07-18T13:29:45.228192,14.96616698,.0000579,23.9984,297.2778,157.1300,202.9227,0,U,44351,999,38829,.88483E-4,.1336E-4,0
FORMOSAT 7-6,2019-036Q,2026-07-18T21:29:10.981536,14.96620878,.00013494,23.9972,115.8378,109.0363,251.0284,0,U,44353,999,38657,.93505614E-4,.1395E-4,0
FORMOSAT 7-5,2019-036V,2026-07-18T22:32:47.290272,14.96600987,.00002486,23.9993,54.2953,151.5771,208.4743,0,U,44358,999,38711,.99428396E-4,.1463E-4,0
METEOR-M2 2,2019-038A,2026-07-18T22:12:51.752736,14.24373424,.00004585,98.9165,187.6824,354.2744,5.8429,0,U,44387,999,36581,-.726061E-5,-.63E-6,0
ICEYE-X4,2019-038D,2026-07-18T22:12:01.154304,15.29929133,.0013257,97.8744,234.7170,184.8396,175.2717,0,U,44390,999,38665,.21551895E-3,.6175E-4,0
MOMENTUS-X1,2019-038Y,2026-07-18T16:51:07.100928,15.69300583,.00060282,97.6720,248.0342,233.4357,126.6350,0,U,44408,999,39149,.24228966E-3,.28191E-3,0
COSMOS 2538,2019-039D,2026-07-18T22:48:13.843008,15.21018956,.00401549,97.5868,279.5713,294.4354,65.2694,0,U,44424,999,38473,.11081588E-3,.2435E-4,0
YAOGAN-30 06A,2019-045A,2026-07-18T22:19:53.529888,15.02819318,.00040581,34.9927,136.5937,210.7950,149.2520,0,U,44449,999,38139,.94863432E-4,.1267E-4,0
YAOGAN-30 06B,2019-045B,2026-07-18T23:23:09.514752,15.02822284,.00085311,34.9917,135.8539,347.1148,12.9342,0,U,44450,999,38144,.99476519E-4,.133E-4,0
YAOGAN-30 06C,2019-045C,2026-07-18T22:50:01.145760,15.02809003,.0001209,34.9928,135.8850,268.5405,91.5165,0,U,44451,999,38133,.96096618E-4,.1283E-4,0
MERIDIAN 8,2019-046A,2026-07-17T15:03:07.730784,2.00596694,.70826634,63.1544,46.8150,274.9454,14.5923,0,U,44453,999,5095,0,-.26E-6,0
COSMOS 2539,2019-048A,2026-07-18T21:51:06.016320,1.00273275,.00008186,0.0324,106.7692,46.3542,123.3559,0,U,44457,999,2554,0,.75E-6,0
EDRS-C,2019-049A,2026-07-18T17:19:27.300000,1.00271072,.00010189,0.0136,124.5613,9.9212,204.3952,0,U,44475,999,2552,0,-.269E-5,0
INTELSAT 39 (IS-39),2019-049B,2026-07-18T23:26:54.336192,1.00269702,.00009249,0.0172,48.0745,310.2157,352.1657,0,U,44476,999,2544,0,0,0
AMOS-17,2019-050A,2026-07-18T21:57:35.561952,1.00271542,.00015091,0.0177,1.5656,106.2824,175.2762,0,U,44479,999,2550,0,.103E-5,0
AEHF-5 (USA 292),2019-051A,2026-07-18T21:26:38.716224,1.00273048,.00648381,1.4282,338.7228,357.4228,15.2864,0,U,44481,999,2558,0,-.264E-5,0
BRO-1,2019-054A,2026-07-18T16:06:46.826784,16.42254960,.000898,44.9686,96.8667,246.6096,113.3886,0,U,44495,999,38479,.46223E-3,.8990616E-1,.10538E-4
GLOBAL-4,2019-054E,2026-07-18T18:46:45.417504,15.67366282,.0005928,45.0056,53.6787,219.3238,140.7230,0,U,44499,999,38531,.35966335E-3,.39633E-3,0
NAVSTAR 78 (USA 293),2019-056A,2026-07-18T19:07:26.218272,2.00570232,.00635898,55.6200,329.8860,198.2191,333.5923,0,U,44506,999,5070,0,-.104E-5,0
COSMOS 2540,2019-057A,2026-07-18T22:55:10.445664,13.85952568,.00167468,99.2056,210.9679,86.2416,274.0655,0,U,44517,999,34827,.33669957E-4,-.5E-7,0
KX-09,2019-058B,2026-07-19T00:12:10.939680,14.96739520,.00085371,97.7774,213.1289,233.2865,126.7573,0,U,44520,999,37479,.23482367E-4,.21E-5,0
ZY-1 02D,2019-059A,2026-07-18T22:14:33.698688,14.35268885,.00030106,98.6706,261.5004,283.4232,76.6617,0,U,44528,999,35889,.15603097E-4,0,0
BNU-1 (JINGSHI 1),2019-059B,2026-07-18T22:19:27.399936,14.48408367,.00119001,98.6106,329.6106,278.1619,81.8224,0,U,44529,999,36158,.36576521E-4,.91E-6,0
TAURUS-1 (JINNIUZUO 1),2019-059C,2026-07-18T21:55:39.419616,14.72389370,.00082853,98.6448,6.7208,202.9927,157.0909,0,U,44530,999,36331,.38790068E-3,.2402E-4,0
ZHUHAI-1 03B,2019-060C,2026-07-18T21:48:45.515232,15.55776464,.00086377,97.5566,359.4353,192.4313,167.6729,0,U,44536,999,38125,.27945995E-3,.19217E-3,0
ZHUHAI-1 03D,2019-060E,2026-07-18T23:20:50.838432,15.51491865,.000773,97.5406,351.3449,177.3562,182.7732,0,U,44538,999,38100,.34704283E-3,.2045E-3,0
ZHUHAI-1 03E,2019-060F,2026-07-18T22:05:08.444832,15.41995233,.00044609,97.5654,350.9980,258.5960,101.4786,0,U,44539,999,38065,.22916087E-3,.968E-4,0
BEIDOU-3 M24,2019-061A,2026-07-17T20:22:15.399840,1.86229139,.00086561,54.3974,181.6938,359.7978,0.1726,0,U,44542,999,4636,0,.52E-6,0
BEIDOU-3 M23,2019-061B,2026-07-18T14:53:49.828704,1.86227518,.0005988,54.3960,181.6358,341.5173,87.3875,0,U,44543,999,4638,0,.6E-6,0
YUNHAI-1 02,2019-063A,2026-07-18T21:47:37.982400,14.32723017,.00069572,98.4124,209.4367,66.7759,293.4158,0,U,44547,999,35641,.83256908E-4,.184E-5,0
COSMOS 2541,2019-065A,2026-07-17T16:17:18.453120,2.00603829,.64971303,62.7136,154.1221,272.0930,20.3014,0,U,44552,999,4983,0,.183E-5,0
GAOFEN-10R,2019-066A,2026-07-18T22:22:15.652704,14.83061622,.00066704,98.0511,153.7451,42.9111,317.2622,0,U,44622,999,36708,.72966877E-4,.539E-5,0
EUTELSAT 5 WEST B,2019-067A,2026-07-18T18:58:38.631360,1.00271159,.00030999,0.0783,320.3585,157.4287,98.4504,0,U,44624,999,2475,0,-.49E-6,0
PALISADE,2019-069A,2026-07-18T16:50:03.508800,13.11907813,.00088323,87.8868,273.4808,353.6104,6.4910,0,U,44634,999,32324,-.11425569E-2,-.395E-5,0
TJS-4,2019-070A,2026-07-18T20:59:34.640736,1.00273766,.00002713,0.1005,260.0896,34.1065,40.9351,0,U,44637,999,2485,0,-.177E-5,0
GAOFEN-7,2019-072A,2026-07-18T23:13:15.029184,15.20934933,.00170435,97.5702,260.7217,298.3058,61.6457,0,U,44703,999,37247,.86180738E-4,.1841E-4,0
STARLINK-1008,2019-074B,2026-07-18T05:16:38.395776,15.53846326,.00049519,53.1497,279.7086,331.5232,28.5508,0,U,44714,999,36903,.62878694E-3,.40893E-3,0
STARLINK-1012,2019-074F,2026-07-18T21:59:25.808352,15.54321471,.00055336,53.1533,276.5578,339.6531,20.4259,0,U,44718,999,36913,.6266642E-3,.41479E-3,0
STARLINK-1017,2019-074L,2026-07-18T11:47:37.976928,15.34398241,.0000857,53.0472,282.9606,93.3803,266.7296,0,U,44723,999,36898,.58446757E-3,.19422E-3,0
STARLINK-1020,2019-074N,2026-07-18T14:22:08.885280,15.60306588,.00045887,53.1550,300.4941,307.4586,52.6010,0,U,44725,999,36875,.59502567E-3,.49359E-3,0
STARLINK-1036,2019-074AE,2026-07-18T11:47:08.764224,15.77799774,.0003344,53.0403,264.6641,21.0381,339.0776,0,U,44741,999,36923,.28883183E-3,.49217E-3,0
STARLINK-1039,2019-074AH,2026-07-18T17:31:33.714048,15.31388900,.00011725,53.0583,328.1450,215.8246,144.2676,0,U,44744,999,36837,.73120912E-3,.22175E-3,0
STARLINK-1042,2019-074AL,2026-07-18T05:27:15.187104,15.55940493,.00012238,53.0409,185.4508,56.0583,304.0543,0,U,44747,999,37035,.20604722E-3,.14098E-3,0
STARLINK-1043,2019-074AM,2026-07-17T14:48:54.129024,15.67446433,.0002488,53.0478,282.0052,9.6076,350.4987,0,U,44748,999,36892,.36545E-3,.39974E-3,0
STARLINK-1046,2019-074AQ,2026-07-18T06:42:42.633504,15.60583885,.00035226,53.0467,302.4170,269.4553,90.6056,0,U,44751,999,36869,.64532372E-3,.5418E-3,0
STARLINK-1047,2019-074AR,2026-07-18T07:44:20.716800,15.35630224,.00013003,53.0666,254.4264,277.9703,82.1151,0,U,44752,999,36939,.70491888E-3,.24471E-3,0
STARLINK-1048,2019-074AS,2026-07-18T12:54:31.548096,15.71504883,.0001011,53.0422,247.8032,132.1507,227.9596,0,U,44753,999,36947,.27044E-3,.34865E-3,0
STARLINK-1063,2019-074BH,2026-07-18T21:00:24.142752,15.54112337,.00036877,53.1536,317.5877,313.7559,46.3147,0,U,44768,999,36857,.92151839E-3,.60884E-3,0
STARLINK-1067,2019-074BL,2026-07-18T14:53:49.128864,15.84882660,.0007133,53.0392,275.8163,352.9963,7.0959,0,U,44771,999,36909,.35161E-3,.84024E-3,0
STARLINK-1068,2019-074BM,2026-07-18T19:22:11.142624,15.82116440,.00063661,53.0373,249.1700,3.4112,356.6952,0,U,44772,999,36947,.30784776E-3,.64218E-3,0
JILIN-1 GAOFEN 2A,2019-075A,2026-07-18T21:57:09.852768,15.40070153,.0004823,97.4956,284.4634,339.8129,20.2926,0,U,44777,999,36976,.18558012E-3,.7336E-4,0
NINGXIA-1 1,2019-076A,2026-07-18T23:06:01.628640,14.02042432,.00114006,45.0068,37.8531,306.1816,53.7963,0,U,44779,999,34231,.30902377E-4,-.82E-6,0
NINGXIA-1 2,2019-076B,2026-07-18T22:43:28.002432,14.02021485,.00071852,45.0091,38.2720,298.4544,61.5565,0,U,44780,999,34231,-.29632124E-4,-.175E-5,0
NINGXIA-1 3,2019-076C,2026-07-18T22:20:13.613568,14.02007682,.00103903,45.0009,36.5149,294.2719,65.7029,0,U,44781,999,34231,.24227168E-4,-.92E-6,0
NINGXIA-1 4,2019-076D,2026-07-18T22:00:07.140384,14.02074149,.00132785,45.0091,38.0319,274.7280,85.2038,0,U,44782,999,34227,.11726011E-3,.51E-6,0
NINGXIA-1 5,2019-076E,2026-07-18T23:23:35.371680,14.02091141,.00113356,45.0064,37.1292,296.9157,63.0518,0,U,44783,999,34223,.14505007E-3,.93E-6,0
KL-ALPHA A,2019-077A,2026-07-18T23:55:06.215808,13.56046596,.00120466,88.9229,219.0856,26.9455,333.2322,0,U,44785,999,33004,.23968394E-3,.18E-5,0
KL-ALPHA B,2019-077B,2026-07-19T00:07:57.201024,13.56005460,.00283931,88.9093,216.6306,59.7130,300.6828,0,U,44786,999,32949,.28249388E-3,.211E-5,0
BEIDOU-3 M22,2019-078A,2026-07-13T09:26:32.496288,1.86227300,.00057504,53.9106,298.9058,50.3045,309.7753,0,U,44793,999,4513,0,-.62E-6,0
BEIDOU-3 M21,2019-078B,2026-07-18T08:46:57.692928,1.86227746,.0003558,53.8786,298.6908,50.4720,309.5991,0,U,44794,999,4523,0,-.87E-6,0
TIBA-1,2019-080A,2026-07-18T22:18:33.194304,1.00273543,.00021794,0.0519,349.9360,147.5999,169.3078,0,U,44800,999,2437,0,.15E-5,0
INMARSAT GX5,2019-080B,2026-07-18T19:49:17.620896,1.00269893,.00021426,0.0349,14.3133,114.6942,115.9453,0,U,44801,999,710,0,.68E-6,0
